KUIPER-00112            
1 65150U 25171U   25323.33336806 -.00680674  00000+0 -48752-1 0  9999
2 65150  51.9023 285.4264 0009409 144.5531 169.5950 15.06437591  5242
KUIPER-00114            
1 65151U 25171V   25323.24715942  .00005217  00000+0  71232-3 0  9995
2 65151  51.9006 303.9834 0006483 102.6700 257.4987 14.79962837 16283
KUIPER-00115            
1 65152U 25171W   25323.12024244  .00004857  00000+0  66543-3 0  9999
2 65152  51.9015 297.0217 0010676 123.7821 236.4160 14.79933532 16379
KUIPER-00116            
1 65153U 25171X   25323.33336806  .00033617  00000+0  44228-2 0  9994
2 65153  51.8996 301.1291 0010427  87.8249 177.3714 14.79841616  5067
KUIPER-00118            
1 65154U 25171Y   25323.28091672  .00117665  00000+0  15237-1 0  9991
2 65154  51.9001 303.8092 0001775 115.8358 244.2788 14.79815593 16290
KUIPER-00119            
1 65155U 25171Z   25323.33336806  .00024694  00000+0  31087-2 0  9990
2 65155  51.8987 291.1879 0008889 108.2634  94.0986 14.81858277  4759
KUIPER-00120            
1 65762U 25217A   25323.33336806 -.00194475  00000+0 -16594-1 0  9997
2 65762  51.8887 182.0577 0014832 287.1869 345.3534 14.98205099  1302
KUIPER-00132            
1 65763U 25217B   25322.90665056  .00028970  00000+0  80234-3 0  9990
2 65763  51.8626 179.9696 0006001 291.4884  68.5462 15.36725847  8374
